IRIDIUM 155             
1 43573U 18061E   21167.57128423  .00000095  00000-0  26806-4 0  9997
2 43573  86.3965 100.0938 0002024  96.2910 263.8517 14.34218944151545
IRIDIUM 154             
1 43574U 18061F   21167.55224134  .00000090  00000-0  25230-4 0  9997
2 43574  86.3968 100.1482 0002271  77.8808 282.2642 14.34220875151594
IRIDIUM 163             
1 43575U 18061G   21167.53322195  .00000104  00000-0  29936-4 0  9995
2 43575  86.3966 100.1271 0002791  84.4324 275.7190 14.34219467151560
IRIDIUM 156             
1 43576U 18061H   21167.36832445  .00000094  00000-0  26653-4 0  9992
2 43576  86.3966 100.2011 0002464  91.3050 268.8428 14.34218691151536
IRIDIUM 164             
1 43577U 18061J   21167.55859490  .00000102  00000-0  29349-4 0  9998
2 43577  86.3968 100.1342 0002386  79.5123 280.6342 14.34216616151607
IRIDIUM 159             
1 43578U 18061K   21167.52687062  .00000097  00000-0  27447-4 0  9990
2 43578  86.3965 100.1226 0002278  79.6990 280.4462 14.34220024151563
IRIDIUM 180             
1 43922U 19002A   21167.59613758  .00000025  00000-0  20006-5 0  9993
2 43922  86.3982  36.9332 0002710  66.8961 293.2520 14.34215286127188
IRIDIUM 176             
1 43923U 19002B   21167.59482457  .00000171  00000-0  23270-4 0  9991
2 43923  86.6115  36.9664 0002322  83.7339 276.4143 14.72257427130503
IRIDIUM 168             
1 43924U 19002C   21167.58981142  .00000083  00000-0  22702-4 0  9997
2 43924  86.3985  36.9615 0002171  78.4093 281.7347 14.34216343127165
IRIDIUM 173             
1 43925U 19002D   21167.57711329  .00000079  00000-0  21155-4 0  9991
2 43925  86.3981  36.9301 0002224  80.6753 279.4694 14.34215584127144
IRIDIUM 169             
1 43926U 19002E   21167.23085336  .00000106  00000-0  28297-4 0  9992
2 43926  86.4236  68.6730 0003168 217.7628 142.3349 14.38610228127568
IRIDIUM 172             
1 43927U 19002F   21167.57077717  .00000089  00000-0  24786-4 0  9993
2 43927  86.3981  36.9350 0002252  78.4682 281.6767 14.34218341127158
IRIDIUM 175             
1 43928U 19002G   21167.58863562  .00000171  00000-0  23130-4 0  9990
2 43928  86.6100  36.7891 0002995  86.9265 273.2295 14.72258464130494
IRIDIUM 171             
1 43929U 19002H   21167.55174484  .00000081  00000-0  21853-4 0  9996
2 43929  86.3991  37.0464 0002132  78.3995 281.7440 14.34216110127142
IRIDIUM 170             
1 43930U 19002J   21167.39711888  .00000170  00000-0  23084-4 0  9992
2 43930  86.6115  37.0553 0002537  81.4057 278.7448 14.72254823130487
IRIDIUM 167             
1 43931U 19002K   21167.54540325  .00000083  00000-0  22418-4 0  9999
2 43931  86.3982  36.9519 0002495  68.2340 291.9121 14.34221040127145
